ONEWEB-0300             
1 49089U 21075Q   24209.31008640  .00001394  00000+0  38393-2 0  9998
2 49089  87.8948 128.0554 0002181  70.6332 289.5032 13.12439200144715
ONEWEB-0301             
1 49090U 21075R   24209.75127733  .00000249  00000+0  65635-3 0  9991
2 49090  87.8947 127.9711 0002149  70.4924 289.6436 13.12445367144134
ONEWEB-0302             
1 49091U 21075S   24209.73829673 -.00000235  00000+0 -68919-3 0  9997
2 49091  87.8948 127.9723 0001834  83.3974 276.7363 13.12438668144117
ONEWEB-0304             
1 49092U 21075T   24209.74420984 -.00000007  00000+0 -50503-4 0  9999
2 49092  87.9191 143.1534 0002005  87.0854 273.0507 13.17646845142782
ONEWEB-0305             
1 49093U 21075U   24209.88802282  .00000085  00000+0  18663-3 0  9994
2 49093  87.9189 143.1107 0002339  89.4723 270.6676 13.17650437142835
ONEWEB-0308             
1 49094U 21075V   24209.73180124 -.00000573  00000+0 -16275-2 0  9993
2 49094  87.8948 127.9728 0002027  75.8855 284.2499 13.12442773144121
ONEWEB-0309             
1 49095U 21075W   24209.89285436  .00000147  00000+0  34599-3 0  9998
2 49095  87.9192 143.1157 0001575  89.9078 270.2234 13.17651653142809
ONEWEB-0310             
1 49096U 21075X   24209.74641167  .00000064  00000+0  14157-3 0  9996
2 49096  87.8958 127.9810 0001818  78.4813 281.6519 13.12443083144754
